CUBEBUG-2 (LO-74)       
1 39440U 13066AA  26154.33051700  .00005093  00000+0  47123-3 0  9999
2 39440  97.8904 103.2522 0059453  73.9566 286.8190 14.93641817674922
FUNCUBE-1 (AO-73)       
1 39444U 13066AE  26155.59353272  .00008112  00000+0  50553-3 0  9997
2 39444  97.8278 126.7780 0034647 245.3456 114.4162 15.09331351677764
UWE-3                   
1 39446U 13066AG  26155.64928530  .00004713  00000+0  40572-3 0  9993
2 39446  97.8702 111.6406 0049326   3.6109 356.5458 14.96922367675703
UNISAT-6                
1 40012U 14033C   26155.89633744  .00004127  00000+0  44485-3 0  9992
2 40012  97.7872 308.8262 0046450 108.6463 251.9805 14.88175664644335
DUCHIFAT-1              
1 40021U 14033M   26155.66830056  .00095076  00000+0  10761-2 0  9994
2 40021  98.0472 213.0954 0004852 139.0185 221.1436 15.62101054653793
QB50P1                  
1 40025U 14033R   26154.57246974  .00009724  00000+0  48090-3 0  9999
2 40025  98.0967 164.7661 0007059 272.3380  87.7044 15.18040602650962
LILACSAT-2              
1 40908U 15049K   26155.95150212  .00019843  00000+0  34262-3 0  9998
2 40908  97.4655 192.3309 0005374 304.6664  55.4081 15.51025712593856
FOX-1A (AO-85)          
1 40967U 15058D   26155.74227487  .00003435  00000+0  31079-3 0  9992
2 40967  64.7765 317.6571 0129791  61.4779 299.9329 14.90903790111712
CAS-2T & KS-1Q          
1 41847U 16066G   26155.63484800  .00001982  00000+0  28545-3 0  9991
2 41847  98.3817 231.5141 0342302 167.4688 193.5290 14.44651724502984
RADFXSAT (FOX-1B)       
1 43017U 17073E   26155.17612321  .00011345  00000+0  49455-3 0  9998
2 43017  97.4712  22.6585 0151546  14.2510 346.2924 15.12484658463423
DIWATA-2B               
1 43678U 18084H   26155.89908547  .00003451  00000+0  27951-3 0  9997
2 43678  98.1152 351.5757 0011787 211.2388 148.8135 15.00393043414375
ES'HAIL 2               
1 43700U 18090A   26155.92665910  .00000156  00000+0  00000+0 0  9999
2 43700   0.0171   1.2654 0001952 105.4261 146.0622  1.00272851 27555
FOX-1CLIFF (AO-95)      
1 43770U 18099N   26154.64024448  .00013080  00000+0  50433-3 0  9997
2 43770  97.4392 214.9391 0009397  44.7441 315.4554 15.26406805411154
ITASAT                  
1 43786U 18099AE  26155.76879905  .00008050  00000+0  38812-3 0  9992
2 43786  97.4029 207.5292 0013386  42.5904 317.6366 15.18892222411023
JY1SAT (JO-97)          
1 43803U 18099AX  26155.63215683  .00018538  00000+0  57877-3 0  9999
2 43803  97.4135 218.4269 0004291 324.7580  35.3378 15.33239560411705
UWE-4                   
1 43880U 18111E   26154.36119365  .00034900  00000+0  73362-3 0  9996
2 43880  97.5860  82.1246 0008243  33.3192 326.8573 15.45215882408648
TIANYAN 01              
1 44881U 19093C   26155.92839560  .00000379  00000+0  48827-4 0  9999
2 44881  97.7534 228.4589 0014679 123.2847 236.9778 14.86496691349590
RS-44 & BREEZE-KM R/B   
1 44909U 19096E   26155.02704110  .00000001  00000+0 -44333-4 0  9997
2 44909  82.5219 348.4520 0217590 174.8762 185.4640 12.79748573300666
SALSAT                  
1 46495U 20068K   26154.99736177  .00008555  00000+0  30076-3 0  9992
2 46495  97.8850 157.2614 0009364 359.9507   0.1729 15.29597840313346
XW-3 (CAS-9)            
1 50466U 21131B   26155.97562499  .00000454  00000+0  15382-3 0  9993
2 50466  98.4979 248.4315 0005081 124.8087 235.3581 14.41345563233359
GREENCUBE (IO-117)      
1 53109U 22080E   26152.46502029 -.00000003  00000+0  00000+0 0  9996
2 53109  70.1435 303.7143 0008869 293.3663  66.6064  6.42583280 91055
UMKA 1 (RS40S)          
1 57172U 23091G   26155.92106729  .00007310  00000+0  33519-3 0  9996
2 57172  97.5050 214.6665 0013539 156.5250 203.6606 15.20670086162147
CUBESX-HSE 3 (RS42S)    
1 57178U 23091N   26155.88685548  .00015085  00000+0  50648-3 0  9998
2 57178  97.5092 221.3214 0012029 132.6483 227.5774 15.30889865162543
MONITOR-3 (RS58S)       
1 57180U 23091Q   26155.88445943  .00011860  00000+0  44122-3 0  9991
2 57180  97.5083 219.2424 0012887 138.9568 221.2643 15.27581832162411
MONITOR-4 (RS57S)       
1 57182U 23091S   26155.92974507  .00012523  00000+0  46434-3 0  9996
2 57182  97.5077 219.2585 0012833 139.2345 220.9857 15.27680916162429
MONITOR-2 (RS39S)       
1 57184U 23091U   26155.92704191  .00005882  00000+0  28556-3 0  9993
2 57184  97.5073 214.2899 0012136 149.0754 211.1197 15.18791166162091
SVYATOBOR 1 (RS60S)     
1 57187U 23091X   26155.93242637  .00010937  00000+0  42229-3 0  9999
2 57187  97.5089 219.6832 0010722 131.4142 228.8019 15.26397485162444
VIZARD-METEO (RS38S)    
1 57189U 23091Z   26155.89877002  .00018609  00000+0  53848-3 0  9999
2 57189  97.5092 225.1412 0008746 113.9484 246.2676 15.35617444162806
POLYTECH-UNIVERSE 3 (R*)
1 57191U 23091AB  26155.88998290  .00006059  00000+0  29194-3 0  9997
2 57191  97.5049 213.7578 0016010 166.6736 193.4925 15.18991561162081
UTMN 2 (RS27S)          
1 57203U 23091AP  26155.91119858  .00014353  00000+0  46996-3 0  9995
2 57203  97.5088 222.9649 0009478 120.1397 240.0785 15.31737177162660
